satname,norad_id,inclination_deg,eccentricity,mean_motion_rev_per_day,perigee_km,apogee_km,l1,l2
STARLINK-1008,44714,53.0548,0.0001482,15.06398139,546.1909241395415,548.2435991426919,1 44714U 19074B   25352.56267284 -.00000454  00000+0 -11591-4 0  9993,2 44714  53.0548 190.8118 0001482  88.1043 272.0116 15.06398139336527
STARLINK-1012,44718,53.0527,0.0001646,15.06401104,546.0682625236541,548.3480861550461,1 44718U 19074F   25352.27517781  .00000022  00000+0  20388-4 0  9998,2 44718  53.0527 192.0996 0001646  88.3778 271.7399 15.06401104336475
STARLINK-1017,44723,53.0476,0.0006917,15.17985575,507.16360988023916,516.6953278332549,1 44723U 19074L   25352.25566390  .00023282  00000+0  11428-2 0  9998,2 44723  53.0476 185.3467 0006917 109.1761 250.9982 15.17985575336571
STARLINK-1019,44724,53.0511,0.000363,15.57036979,393.77874103346676,398.6969371666528,1 44724U 19074M   25352.58636054  .00148175  00000+0  19824-2 0  9997,2 44724  53.0511 177.0909 0003630 163.2720 196.8411 15.57036979336716
STARLINK-1020,44725,53.0531,0.0001323,15.06407997,546.2708280218822,548.1032687650868,1 44725U 19074N   25352.34336832  .00001718  00000+0  13420-3 0  9991,2 44725  53.0531 211.7971 0001323  93.1302 266.9838 15.06407997336200
STARLINK-1031,44736,53.0465,0.0005191,15.60948313,381.40584890000264,388.4272510956098,1 44736U 19074Z   25352.66667824  .00144547  00000+0  16684-2 0  9998,2 44736  53.0465 163.4111 0005191 113.2709   2.0672 15.60948313  5827
STARLINK-1036,44741,53.0535,0.0001412,15.0639476,546.2497563460947,548.2054793141697,1 44741U 19074AE  25352.63824362  .00000876  00000+0  77675-4 0  9998,2 44741  53.0535 210.4679 0001412  90.5111 269.6040 15.06394760336254
STARLINK-1039,44744,53.0477,0.0003453,15.15503242,517.0694459700444,521.8329203693411,1 44744U 19074AH  25352.64767161  .00017680  00000+0  93625-3 0  9998,2 44744  53.0477 225.6867 0003453  65.7385 294.3968 15.15503242336041
STARLINK-1042,44747,53.0455,0.0001403,15.45593185,428.6805423834612,430.5908033954729,1 44747U 19074AL  25352.60876340  .00017116  00000+0  35811-3 0  9994,2 44747  53.0455 122.5289 0001403 240.4180 119.6686 15.45593185337518
STARLINK-1043,44748,53.054,0.0003045,15.44687405,430.22294850410344,434.37050264297795,1 44748U 19074AM  25352.08178471  .00071108  00000+0  14953-2 0  9991,2 44748  53.0540 225.9517 0003045 118.8578 241.2733 15.44687405335992
STARLINK-1046,44751,53.0525,0.0001511,15.06407982,546.1406778952596,548.2335108365769,1 44751U 19074AQ  25352.35995459  .00000845  00000+0  75582-4 0  9995,2 44751  53.0525 231.7196 0001511  88.2438 271.8725 15.06407982335930
STARLINK-1047,44752,53.0683,0.000159,15.30509191,473.20250002965895,475.38157246318497,1 44752U 19074AR  25352.64364201  .00007187  00000+0  25215-3 0  9996,2 44752  53.0683 164.0238 0001590   7.9798 352.1227 15.30509191336927
STARLINK-1048,44753,53.0533,0.0001229,15.06394786,546.3764108416781,548.0786654451549,1 44753U 19074AS  25352.58479885  .00000014  00000+0  19818-4 0  9990,2 44753  53.0533 190.7087 0001229  94.0273 266.0856 15.06394786336526
STARLINK-1053,44758,53.0384,0.0001886,15.68068484,363.1565904372683,365.6998860451322,1 44758U 19074AX  25352.58924806  .00066689  00000+0  58920-3 0  9999,2 44758  53.0384 129.1092 0001886 204.3758 155.7169 15.68068484337400
STARLINK-1060,44765,53.0475,0.0006103,15.78037994,331.90245088897063,340.0977266195041,1 44765U 19074BE  25352.66667824  .00087356  00000+0  50165-3 0  9997,2 44765  53.0475 172.9433 0006103 160.4593  41.4382 15.78037994  5997
STARLINK-1063,44768,53.0532,0.0001468,15.06389197,546.2280217464013,548.2613138040597,1 44768U 19074BH  25352.61428101 -.00002823  00000+0 -17075-3 0  9999,2 44768  53.0532 230.5812 0001468  86.2663 273.8494 15.06389197335984
STARLINK-1067,44771,53.0532,0.0001933,15.12839348,526.2110519086846,528.8807889257187,1 44771U 19074BL  25352.66667824  .00047381  00000+0  26641-2 0  9999,2 44771  53.0532 230.2176 0001933  84.0768 326.6035 15.12839348  5805
STARLINK-1068,44772,53.0571,0.000138,15.27584687,482.0882197669098,483.9819032558871,1 44772U 19074BM  25352.66667824  .01081860  00000+0  36163-1 0  9990,2 44772  53.0571 209.3333 0001380  92.9678 103.2813 15.27584687  5751
STARLINK-1112,44925,53.0486,0.0009112,15.66646785,362.3592371276445,374.6543207503837,1 44925U 20001M   25352.66667824  .00174473  00000+0  16004-2 0  9997,2 44925  53.0486 289.9061 0009112  64.3922 359.4502 15.66646785  5957
STARLINK-1114,44927,53.0563,0.0001459,15.06409904,546.1707998450902,548.1916076969501,1 44927U 20001P   25352.30097684 -.00000310  00000+0 -19018-5 0  9992,2 44927  53.0563 351.9876 0001459  96.2010 263.9145 15.06409904327589
STARLINK-1123,44930,53.0558,0.0001564,15.06401678,546.1232914046041,548.2895388248526,1 44930U 20001S   25352.38206847  .00000802  00000+0  72707-4 0  9994,2 44930  53.0558 351.6243 0001564  83.8174 276.2993 15.06401678327591
STARLINK-1144,44933,53.0431,0.000314,15.76365908,338.6374087830791,342.85686802199507,1 44933U 20001V   25352.66667824  .00204135  00000+0  12409-2 0  9990,2 44933  53.0431 263.9726 0003140 125.7327 304.4390 15.76365908  5863
STARLINK-1094,44941,53.057,0.0001499,15.06411018,546.1396848740269,548.2158942479373,1 44941U 20001AD  25352.32861602  .00001573  00000+0  12441-3 0  9990,2 44941  53.0570 331.8657 0001499  84.4503 275.6657 15.06411018327865
STARLINK-1122,44949,53.0577,0.0001909,15.0641188,545.8531055996036,548.4971897775913,1 44949U 20001AM  25352.21803577  .00000218  00000+0  33565-4 0  9999,2 44949  53.0577 332.3549 0001909  96.0069 264.1138 15.06411880327840
STARLINK-1080,44961,53.0536,0.0001304,15.09831825,535.8117399316561,537.6151329254772,1 44961U 20001AZ  25352.66667824  .00047217  00000+0  28854-2 0  9998,2 44961  53.0536 310.3156 0001304 110.8132 188.5773 15.09831825  5805
STARLINK-1090,44968,53.0569,0.0001454,15.06398492,546.2092333926057,548.2231260972758,1 44968U 20001BG  25352.21989097  .00000884  00000+0  78271-4 0  9994,2 44968  53.0569 312.3521 0001454  84.4929 275.6226 15.06398492328132
STARLINK-1132,45044,53.0546,0.0001313,15.06410169,546.2710974196898,548.0896857667221,1 45044U 20006A   25352.51107871  .00002673  00000+0  19820-3 0  9992,2 45044  53.0546 271.0459 0001313  90.2298 269.8842 15.06410169324504
STARLINK-1131,45047,53.0557,0.0001351,15.06400743,546.2736664686954,548.1448950337553,1 45047U 20006D   25352.55353392 -.00000050  00000+0  15505-4 0  9995,2 45047  53.0557 291.3947 0001351  92.9618 267.1526 15.06400743324229
STARLINK-1134,45048,53.0379,0.0004827,15.32929776,463.7723633729329,470.3807325321259,1 45048U 20006E   25352.48200985  .00010998  00000+0  35191-3 0  9990,2 45048  53.0379 261.3303 0004827  17.4139 342.7026 15.32929776324648
STARLINK-1156,45054,53.0555,0.0001589,15.06414601,546.0663775625144,548.2672391128035,1 45054U 20006L   25352.52397149  .00000964  00000+0  83556-4 0  9992,2 45054  53.0555 290.9841 0001589  86.2126 273.9045 15.06414601324225
STARLINK-1159,45057,53.0536,0.0007237,15.57356532,390.40917654718305,400.2130653574486,1 45057U 20006P   25352.59758622  .00101040  00000+0  13448-2 0  9997,2 45057  53.0536 275.0149 0007237  87.9390 272.2450 15.57356532324461
STARLINK-1166,45060,53.0556,0.0001407,15.06396554,546.2477214239889,548.1965174802035,1 45060U 20006S   25352.54977907 -.00000385  00000+0 -69310-5 0  9999,2 45060  53.0556 290.8710 0001407 102.1429 257.9718 15.06396554324236
STARLINK-1169,45061,53.056,0.0001475,15.06377492,546.2590434879521,548.3020416630106,1 45061U 20006T   25352.55715885  .00002597  00000+0  19332-3 0  9998,2 45061  53.0560 290.8362 0001475  75.2563 284.8590 15.06377492324236
STARLINK-1171,45062,53.0536,0.0013148,15.40668239,435.1659826579116,453.1058314943584,1 45062U 20006U   25352.09568661  .00051552  00000+0  12428-2 0  9999,2 45062  53.0536 280.4460 0013148  76.4513 283.7955 15.40668239324347
STARLINK-1133,45064,53.0555,0.0001571,15.06419123,546.0649862664613,548.2409123685375,1 45064U 20006W   25352.48895461  .00002175  00000+0  16479-3 0  9993,2 45064  53.0555 271.1436 0001571  88.7275 271.3894 15.06419123324509
STARLINK-1167,45071,53.0552,0.0001532,15.06397111,546.1594475657685,548.2813770769035,1 45071U 20006AD  25352.51476930 -.00001403  00000+0 -75294-4 0  9997,2 45071  53.0552 271.0265 0001532  87.1494 272.9670 15.06397111324507
STARLINK-1168,45072,53.0545,0.0001318,15.06423469,546.2268783074687,548.0523812270749,1 45072U 20006AE  25352.18671196  .00008861  00000+0  61264-3 0  9996,2 45072  53.0545 272.4980 0001318  85.5519 274.5621 15.06423469324455
STARLINK-1172,45074,53.0547,0.0001503,15.06432063,546.0724260853931,548.1541563229293,1 45074U 20006AG  25352.19776580  .00008881  00000+0  61386-3 0  9999,2 45074  53.0547 272.4512 0001503  85.2659 274.8501 15.06432063324458
STARLINK-1153,45080,53.055,0.000141,15.06401361,546.2309131139173,548.1838602309581,1 45080U 20006AN  25352.50739338 -.00001828  00000+0 -10383-3 0  9998,2 45080  53.0550 271.0589 0001410  88.7841 271.3310 15.06401361324509
STARLINK-1151,45081,53.0547,0.0001242,15.29777699,475.62493117445774,477.327617111755,1 45081U 20006AP  25352.66667824  .01980382  00000+0  61221-1 0  9991,2 45081  53.0547 269.1205 0001242 118.7560  56.8701 15.29777699  5819
STARLINK-1185,45087,53.0544,0.0001738,15.06433098,545.9065112432536,548.3137271418846,1 45087U 20006AV  25352.13695354  .00010580  00000+0  72744-3 0  9995,2 45087  53.0544 252.7232 0001738  83.5140 276.6047 15.06433098324730
STARLINK-1183,45088,53.0533,0.0001524,15.06417278,546.1031888128764,548.2140189129341,1 45088U 20006AW  25352.42445477  .00001502  00000+0  11967-3 0  9991,2 45088  53.0533 251.4340 0001524  74.5396 285.5761 15.06417278324779
STARLINK-1142,45093,53.0185,0.0008755,15.98172116,273.6614855920807,285.31899088623777,1 45093U 20006BB  25352.66667824  .00825291  32046-3  17470-2 0  9997,2 45093  53.0185 159.7599 0008755 255.3907  17.6164 15.98172116  6008
